{"type": "FeatureCollection", "features": [ {"type": "Feature", "properties": {"norad_id": 54234, "name": "NOAA 21 (JPSS-2)", "group": "weather", "lat": -44.38632127353469, "lon": -72.39781805199776, "alt_km": 833.6474228320576, "timestamp": "2025-12-08T13:49:31.435237+00:00", "meta": {"OBJECT_NAME": "NOAA 21 (JPSS-2)", "OBJECT_ID": "2022-150A", "EPOCH": "2025-12-08T07:16:13.976256", "MEAN_MOTION": 14.19522476, "ECCENTRICITY": 0.00023898, "INCLINATION": 98.7456, "RA_OF_ASC_NODE": 278.6667, "ARG_OF_PERICENTER": 46.6754, "MEAN_ANOMALY": 313.4621, "EPHEMERIS_TYPE": 0, "CLASSIFICATION_TYPE": "U", "NORAD_CAT_ID": 54234, "ELEMENT_SET_NO": 999, "REV_AT_EPOCH": 15946, "BSTAR": 0.00013219787, "MEAN_MOTION_DOT": 2.35e-06, "MEAN_MOTION_DDOT": 0}, "tle": {"line1": "1 54234U 22150A   25342.30293954  .00000235  00000+0  13220-3 0  9999", "line2": "2 54234  98.7456 278.6667 0002389  46.6754 313.4621 14.19522476159461"}}, "geometry": {"type": "Point", "coordinates": [-72.39781805199776, -44.38632127353469]}}, {"type": "Feature", "properties": {"norad_id": 54743, "name": "METEOSAT-12 (MTG-I1)", "group": "weather", "lat": -0.7153318784033904, "lon": -75.26555190450982, "alt_km": 35779.883838531474, "timestamp": "2025-12-08T13:49:31.435258+00:00", "meta": {"OBJECT_NAME": "METEOSAT-12 (MTG-I1)", "OBJECT_ID": "2022-170C", "EPOCH": "2025-12-08T06:45:14.433120", "MEAN_MOTION": 1.00274861, "ECCENTRICITY": 0.00014895, "INCLINATION": 0.7252, "RA_OF_ASC_NODE": 30.8853, "ARG_OF_PERICENTER": 223.0145, "MEAN_ANOMALY": 284.4666, "EPHEMERIS_TYPE": 0, "CLASSIFICATION_TYPE": "U", "NORAD_CAT_ID": 54743, "ELEMENT_SET_NO": 999, "REV_AT_EPOCH": 1106, "BSTAR": 0, "MEAN_MOTION_DOT": -4e-08, "MEAN_MOTION_DDOT": 0}, "tle": {"line1": "1 54743U 22170C   25342.28141705 -.00000004  00000+0  00000+0 0  9992", "line2": "2 54743   0.7252  30.8853 0001489 223.0145 284.4666  1.00274861 11060"}}, "geometry": {"type": "Point", "coordinates": [-75.26555190450982, -0.7153318784033904]}}, {"type": "Feature", "properties": {"norad_id": 55973, "name": "TIANMU-1 03", "group": "weather", "lat": -45.15337176289645, "lon": -42.51076535347205, "alt_km": 453.48640290932144, "timestamp": "2025-12-08T13:49:31.435269+00:00", "meta": {"OBJECT_NAME": "TIANMU-1 03", "OBJECT_ID": "2023-039A", "EPOCH": "2025-12-08T06:36:53.199936", "MEAN_MOTION": 15.40725277, "ECCENTRICITY": 0.00045345, "INCLINATION": 97.5111, "RA_OF_ASC_NODE": 144.8034, "ARG_OF_PERICENTER": 73.8781, "MEAN_ANOMALY": 286.2964, "EPHEMERIS_TYPE": 0, "CLASSIFICATION_TYPE": "U", "NORAD_CAT_ID": 55973, "ELEMENT_SET_NO": 999, "REV_AT_EPOCH": 15137, "BSTAR": 0.00046706684, "MEAN_MOTION_DOT": 0.00019027, "MEAN_MOTION_DDOT": 0}, "tle": {"line1": "1 55973U 23039A   25342.27561574  .00019027  00000+0  46707-3 0  9994", "line2": "2 55973  97.5111 144.8034 0004534  73.8781 286.2964 15.40725277151373"}}, "geometry": {"type": "Point", "coordinates": [-42.51076535347205, -45.15337176289645]}}, {"type": "Feature", "properties": {"norad_id": 55974, "name": "TIANMU-1 04", "group": "weather", "lat": -25.45489460182187, "lon": 147.90261997539238, "alt_km": 448.91906545379607, "timestamp": "2025-12-08T13:49:31.435280+00:00", "meta": {"OBJECT_NAME": "TIANMU-1 04", "OBJECT_ID": "2023-039B", "EPOCH": "2025-12-08T06:08:41.071488", "MEAN_MOTION": 15.41058508, "ECCENTRICITY": 0.00051983, "INCLINATION": 97.5044, "RA_OF_ASC_NODE": 143.9763, "ARG_OF_PERICENTER": 69.4045, "MEAN_ANOMALY": 290.7758, "EPHEMERIS_TYPE": 0, "CLASSIFICATION_TYPE": "U", "NORAD_CAT_ID": 55974, "ELEMENT_SET_NO": 999, "REV_AT_EPOCH": 15137, "BSTAR": 0.00046097021, "MEAN_MOTION_DOT": 0.00018988, "MEAN_MOTION_DDOT": 0}, "tle": {"line1": "1 55974U 23039B   25342.25603092  .00018988  00000+0  46097-3 0  9992", "line2": "2 55974  97.5044 143.9763 0005198  69.4045 290.7758 15.41058508151377"}}, "geometry": {"type": "Point", "coordinates": [147.90261997539238, -25.45489460182187]}}, {"type": "Feature", "properties": {"norad_id": 55975, "name": "TIANMU-1 05", "group": "weather", "lat": 11.760566882884408, "lon": 143.22338919225498, "alt_km": 444.8679553978591, "timestamp": "2025-12-08T13:49:31.435312+00:00", "meta": {"OBJECT_NAME": "TIANMU-1 05", "OBJECT_ID": "2023-039C", "EPOCH": "2025-12-08T07:32:20.537376", "MEAN_MOTION": 15.40685179, "ECCENTRICITY": 0.00043708, "INCLINATION": 97.5089, "RA_OF_ASC_NODE": 144.528, "ARG_OF_PERICENTER": 90.4516, "MEAN_ANOMALY": 269.7231, "EPHEMERIS_TYPE": 0, "CLASSIFICATION_TYPE": "U", "NORAD_CAT_ID": 55975, "ELEMENT_SET_NO": 999, "REV_AT_EPOCH": 15136, "BSTAR": 0.0004648669, "MEAN_MOTION_DOT": 0.00018912, "MEAN_MOTION_DDOT": 0}, "tle": {"line1": "1 55975U 23039C   25342.31412659  .00018912  00000+0  46487-3 0  9997", "line2": "2 55975  97.5089 144.5280 0004370  90.4516 269.7231 15.40685179151366"}}, "geometry": {"type": "Point", "coordinates": [143.22338919225498, 11.760566882884408]}}, {"type": "Feature", "properties": {"norad_id": 55976, "name": "TIANMU-1 06", "group": "weather", "lat": -38.11449549515968, "lon": 151.19941543519803, "alt_km": 451.05565028533965, "timestamp": "2025-12-08T13:49:31.435325+00:00", "meta": {"OBJECT_NAME": "TIANMU-1 06", "OBJECT_ID": "2023-039D", "EPOCH": "2025-12-08T06:12:02.096640", "MEAN_MOTION": 15.41110889, "ECCENTRICITY": 0.00047003, "INCLINATION": 97.5101, "RA_OF_ASC_NODE": 144.9323, "ARG_OF_PERICENTER": 85.9317, "MEAN_ANOMALY": 274.2466, "EPHEMERIS_TYPE": 0, "CLASSIFICATION_TYPE": "U", "NORAD_CAT_ID": 55976, "ELEMENT_SET_NO": 999, "REV_AT_EPOCH": 15137, "BSTAR": 0.00045684925, "MEAN_MOTION_DOT": 0.00018848, "MEAN_MOTION_DDOT": 0}, "tle": {"line1": "1 55976U 23039D   25342.25835760  .00018848  00000+0  45685-3 0  9990", "line2": "2 55976  97.5101 144.9323 0004700  85.9317 274.2466 15.41110889151373"}}, "geometry": {"type": "Point", "coordinates": [151.19941543519803, -38.11449549515968]}}, {"type": "Feature", "properties": {"norad_id": 56232, "name": "FENGYUN 3G", "group": "weather", "lat": -3.5815950798896696, "lon": 71.94817536002613, "alt_km": 404.6905997324084, "timestamp": "2025-12-08T13:49:31.435335+00:00", "meta": {"OBJECT_NAME": "FENGYUN 3G", "OBJECT_ID": "2023-055A", "EPOCH": "2025-12-08T05:18:54.436032", "MEAN_MOTION": 15.53244582, "ECCENTRICITY": 0.00092148, "INCLINATION": 49.9938, "RA_OF_ASC_NODE": 250.7645, "ARG_OF_PERICENTER": 127.1084, "MEAN_ANOMALY": 233.0726, "EPHEMERIS_TYPE": 0, "CLASSIFICATION_TYPE": "U", "NORAD_CAT_ID": 56232, "ELEMENT_SET_NO": 999, "REV_AT_EPOCH": 15032, "BSTAR": 0.00061486039, "MEAN_MOTION_DOT": 0.00039258, "MEAN_MOTION_DDOT": 0}, "tle": {"line1": "1 56232U 23055A   25342.22146338  .00039258  00000+0  61486-3 0  9992", "line2": "2 56232  49.9938 250.7645 0009214 127.1084 233.0726 15.53244582150323"}}, "geometry": {"type": "Point", "coordinates": [71.94817536002613, -3.5815950798896696]}}, {"type": "Feature", "properties": {"norad_id": 57166, "name": "METEOR-M2 3", "group": "weather", "lat": 25.2733042825469, "lon": -139.69617268931597, "alt_km": 813.0226301865314, "timestamp": "2025-12-08T13:49:31.435346+00:00", "meta": {"OBJECT_NAME": "METEOR-M2 3", "OBJECT_ID": "2023-091A", "EPOCH": "2025-12-08T06:21:29.069856", "MEAN_MOTION": 14.24025358, "ECCENTRICITY": 0.00041587, "INCLINATION": 98.6385, "RA_OF_ASC_NODE": 35.8823, "ARG_OF_PERICENTER": 21.1148, "MEAN_ANOMALY": 339.0201, "EPHEMERIS_TYPE": 0, "CLASSIFICATION_TYPE": "U", "NORAD_CAT_ID": 57166, "ELEMENT_SET_NO": 999, "REV_AT_EPOCH": 12734, "BSTAR": 4.5122806e-05, "MEAN_MOTION_DOT": 6e-07, "MEAN_MOTION_DDOT": 0}, "tle": {"line1": "1 57166U 23091A   25342.26491979  .00000060  00000+0  45123-4 0  9997", "line2": "2 57166  98.6385  35.8823 0004158  21.1148 339.0201 14.24025358127349"}}, "geometry": {"type": "Point", "coordinates": [-139.69617268931597, 25.2733042825469]}}, {"type": "Feature", "properties": {"norad_id": 57399, "name": "TIANMU-1 07", "group": "weather", "lat": -44.810679333210885, "lon": -154.78600038624916, "alt_km": 491.2991748086097, "timestamp": "2025-12-08T13:49:31.435356+00:00", "meta": {"OBJECT_NAME": "TIANMU-1 07", "OBJECT_ID": "2023-101A", "EPOCH": "2025-12-08T06:33:23.139072", "MEAN_MOTION": 15.2797354, "ECCENTRICITY": 0.0005632, "INCLINATION": 97.2877, "RA_OF_ASC_NODE": 32.2217, "ARG_OF_PERICENTER": 92.7603, "MEAN_ANOMALY": 267.4281, "EPHEMERIS_TYPE": 0, "CLASSIFICATION_TYPE": "U", "NORAD_CAT_ID": 57399, "ELEMENT_SET_NO": 999, "REV_AT_EPOCH": 13247, "BSTAR": 0.00036081818, "MEAN_MOTION_DOT": 9.783e-05, "MEAN_MOTION_DDOT": 0}, "tle": {"line1": "1 57399U 23101A   25342.27318448  .00009783  00000+0  36082-3 0  9991", "line2": "2 57399  97.2877  32.2217 0005632  92.7603 267.4281 15.27973540132475"}}, "geometry": {"type": "Point", "coordinates": [-154.78600038624916, -44.810679333210885]}}, {"type": "Feature", "properties": {"norad_id": 57400, "name": "TIANMU-1 08", "group": "weather", "lat": 46.475415039952374, "lon": 24.574116698170574, "alt_km": 474.43429420577104, "timestamp": "2025-12-08T13:49:31.435366+00:00", "meta": {"OBJECT_NAME": "TIANMU-1 08", "OBJECT_ID": "2023-101B", "EPOCH": "2025-12-08T05:45:43.015680", "MEAN_MOTION": 15.27956653, "ECCENTRICITY": 0.00075552, "INCLINATION": 97.2866, "RA_OF_ASC_NODE": 31.9881, "ARG_OF_PERICENTER": 96.3564, "MEAN_ANOMALY": 263.8537, "EPHEMERIS_TYPE": 0, "CLASSIFICATION_TYPE": "U", "NORAD_CAT_ID": 57400, "ELEMENT_SET_NO": 999, "REV_AT_EPOCH": 13246, "BSTAR": 0.0003569531, "MEAN_MOTION_DOT": 9.676e-05, "MEAN_MOTION_DDOT": 0}, "tle": {"line1": "1 57400U 23101B   25342.24008120  .00009676  00000+0  35695-3 0  9994", "line2": "2 57400  97.2866  31.9881 0007555  96.3564 263.8537 15.27956653132460"}}, "geometry": {"type": "Point", "coordinates": [24.574116698170574, 46.475415039952374]}}]}